#cP2023  3 30  0  0  0.00000000      96 ORBIT IGS20 HLM  IGS
## 2255 345600.00000000   900.00000000 60033 0.0000000000000
+   32   G01G02G03G04G05G06G07G08G09G10G11G12G13G14G15G16G17
+        G18G19G20G21G22G23G24G25G26G27G28G29G30G31G32  0  0
+          0  0  0  0  0  0  0  0  0  0  0  0  0  0  0  0  0
+          0  0  0  0  0  0  0  0  0  0  0  0  0  0  0  0  0
+          0  0  0  0  0  0  0  0  0  0  0  0  0  0  0  0  0
++         2  2  2  2  2  2  2  2  2  2  3  2  2  2  2  2  2
++         2  2  2  2  2  2  3  2  2  2  3  2  3  2  2  0  0
++         0  0  0  0  0  0  0  0  0  0  0  0  0  0  0  0  0
++         0  0  0  0  0  0  0  0  0  0  0  0  0  0  0  0  0
++         0  0  0  0  0  0  0  0  0  0  0  0  0  0  0  0  0
%c G  cc GPS ccc cccc cccc cccc cccc ccccc ccccc ccccc ccccc
%c cc cc ccc ccc cccc cccc cccc cccc ccccc ccccc ccccc ccccc
%f  1.2500000  1.025000000  0.00000000000  0.000000000000000
%f  0.0000000  0.000000000  0.00000000000  0.000000000000000
%i    0    0    0    0      0      0      0      0         0
%i    0    0    0    0      0      0      0      0         0
/* RAPID ORBIT COMBINATION FROM WEIGHTED AVERAGE OF:        
/* cod emr esa gfz grg jpl ngs sio usn whu                  
/* REFERENCED TO IGS TIME (IGST) AND TO WEIGHTED MEAN POLE: 
/* PCV:IGS20_2233 OL/AL:FES2014b NONE     Y  ORB:CMB CLK:CMB
*  2023  3 30 18  0  0.00000000
PG01  13308.069114 -16162.486704  15799.023305    197.758863  3  6  5  95       
PG02 -10502.294798  20343.338495 -13049.771138   -610.367746  6  7  5  93       
PG03  22213.057812 -13095.044763  -6225.714404   -339.933305  5  6  7  90       
PG04  13203.660693  -8358.175507 -21478.782019      5.036631  6  7  7  93       
PG05 -24602.693927   3485.100343  -9717.847397   -121.492343  2  7  7 103       
PG06  -6209.290747 -21244.254719 -14542.748770    584.637068  7  8  7  85       
PG07   6554.355466 -25146.851906  -3574.068686    212.191566  7  8  9  83       
PG08  21311.825460   2264.402813  15871.014363   -115.420577  4  4  3 118       
PG09   2487.396642 -16535.506356 -20697.315423   -190.198001  8  8  8  99       
PG10   4729.124301  14170.483213  22131.191984    -30.730072  5  4  3 108       
PG11 -13369.233437  -8361.882238 -21368.153771   -146.488301  8  6  8 102       
PG12 -23945.404431  10595.505599  -4418.935122   -357.889106  3  7  7  91       
PG13 -21247.971431 -10866.683665  11691.469104    498.402672  3  8  7 123       
PG14  -1223.607077 -15766.744398  21330.623850     10.547894  5  8  5 110       
PG15 -21371.476722    605.266791  15471.687873     26.203516  6  8  6  92       
PG16  24105.033271   1571.535607 -11850.842293   -512.212173  4  8  7  93       
PG17  -9841.819918 -21069.854725  13165.614823    708.173476  5  9  4 113       
PG18  -4699.200584  26058.904759   -231.123979   -202.405102  7  9  6  73       
PG19 -17048.307421 -20249.381929   3369.506628    297.028566  7  7  5 109       
PG20 -19565.811230  -3060.951292 -17569.958335    441.864279  7  6  9 113       
PG21  15188.414671  -6878.305355  21053.077736    154.318206  3  5  4 110       
PG22  18680.938860  18989.071347   1256.884393    455.077964  6  7  6  60       
PG23  -8402.728911  17146.887611  18403.325107     13.657521  5  7  6 105       
PG24 -14289.117072  12318.458086  18177.931440   -132.499891  8  8 10  33       
PG25 -16348.386399  16478.117653 -12974.502382    431.807839  4  4  3 107       
PG26  15355.425288   9069.437261 -19893.090450    241.945546  7  5  6 105       
PG27  22775.261959  12137.513176   6898.183351     69.652593  4  2  5  74       
PG28   6285.555103  22447.015882 -12763.794083     55.476790  7 11  8  96       
PG29  -7089.185029  13506.747240 -21784.527535   -593.305811  5  7  5 112       
PG30  -1748.563196 -25183.793390   7911.190106   -524.675614  8 13  9  86       
PG31   9621.368775  17298.616468 -17672.767676   -212.839977  4  6  3  93       
PG32  13610.099725  20345.634056  10730.207036   -438.100514  3  2  5 108       
*  2023  3 30 18 15  0.00000000
PG01  13173.381225 -14182.076219  17694.665397    197.755559  3  6  5  96       
PG02 -10614.791389  18633.940352 -15207.859054   -610.365276  6  6  5 105       
PG03  22789.360557 -13112.911956  -3399.430751   -339.926339  5  7  7  92       
PG04  15052.095925  -6795.698821 -20813.941805      5.044741  6  7  7  93       
PG05 -23583.514871   2774.593816 -12190.393583   -121.493521  3  7  7  94       
PG06  -5865.431134 -22752.633690 -12221.022928    584.638846  7  8  7  74       
PG07   6793.625595 -24484.622410  -6360.578739    212.183773  7  8  8  87       
PG08  22594.741683   3384.471825  13804.064875   -115.421900  4  4  2 111       
PG09   4471.354633 -15191.359653 -21388.810387   -190.191001  8  8  8  95       
PG10   2441.689205  15116.818414  21844.881778    -30.730933  5  5  3  97       
PG11 -12894.870886 -10716.556812 -20597.876876   -146.499081  8  7  8 101       
PG12 -24320.791528  10466.407905  -1574.926397   -357.893187  3  8  7  74       
PG13 -21970.378584 -11856.506161   9177.686069    498.407931  4  8  7 119       
PG14   1047.878755 -16574.449677  20706.192368     10.557698  6  9  5 109       
PG15 -22760.996832   -441.536387  13444.923160     26.206553  5  8  6  85       
PG16  22797.342346   2163.188719 -14140.317356   -512.209658  5  8  7 100       
PG17  -8546.053849 -20172.178067  15373.225435    708.175283  6  9  4 120       
PG18  -4899.077145  25836.922452  -3112.991995   -202.420103  6  8  5  87       
PG19 -16501.825487 -20004.341000   6166.254617    297.033085  7  7  5  92       
PG20 -17875.227569  -4337.783500 -19055.173741    441.862583  8  6  9 109       
PG21  15192.998976  -4529.683708  21767.954249    154.318397  3  5  5 105       
PG22  18334.579538  18993.554362   4085.231774    455.084659  6  7  6  54       
PG23 -10285.517654  17860.203405  16675.203827     13.659609  5  7  6  98       
PG24 -14388.385713  10072.652977  19453.066675   -132.513401  8  7  9  42       
PG25 -17649.314151  16784.754290 -10575.707308    431.810469  4  5  2  97       
PG26  13338.665098  10188.299563 -20760.969029    241.945545  7  4  6 103       
PG27  23178.660357  12687.284937   4144.308248     69.645195  4  3  5  72       
PG28   5960.705384  23741.861886 -10342.362468     55.484065  7 11  8  88       
PG29  -8975.793026  11877.486052 -22044.385461   -593.307328  4  6  5 103       
PG30  -1325.300940 -25882.851974   5227.858292   -524.674089  9 13  9  90       
PG31   9158.744329  19157.185192 -15853.313995   -212.840974  4  7  4  99       
PG32  12418.843172  19714.289990  13109.301140   -438.109937  2  3  5  88       
*  2023  3 30 18 30  0.00000000
PG01  13133.360854 -11997.391470  19274.037044    197.752319  2  6  5 106       
PG02 -10824.141405  16694.871637 -17096.067967   -610.362575  6  6  5 102       
PG03  23073.969948 -13016.563583   -514.327512   -339.919335  4  6  7  96       
PG04  16901.436754  -5388.535512 -19791.351180      5.052846  7  7  6 107       
PG05 -22370.764030   1882.220630 -14456.244390   -121.494604  4  7  7  95       
PG06  -5626.108716 -24001.817185  -9687.172178    584.640680  6  8  7 107       
PG07   7046.959642 -23520.266162  -9032.934745    212.176617  7  8  8  91       
PG08  23725.313572   4303.047339  11503.060896   -115.424380  4  5  1 104       
PG09   6569.829618 -13920.715882 -21714.455884   -190.184024  8  7  8 107       
PG10    254.376008  16165.256550  21187.616688    -30.732946  5  5  4 101       
PG11 -12557.722219 -12986.029141 -19473.134773   -146.509902  8  7  9 100       
PG12 -24403.901643  10231.385615   1296.270396   -357.897125  3  9  7  60       
PG13 -22524.938348 -12610.006771   6506.613308    498.413078  4  7  7 104       
PG14   3194.636382 -17457.755685  19724.799888     10.567495  6  9  5 104       
PG15 -23976.827476  -1311.333756  11183.550907     26.209787  5  8  6  88       
PG16  21298.307634   2912.792802 -16195.881421   -512.207843  5  7  7 104       
PG17  -7020.658127 -19206.970184  17322.267062    708.176864  6  9  4 115       
PG18  -5084.582130  25302.176113  -5940.799634   -202.435171  6  7  5  85       
PG19 -15701.862048 -19592.793231   8857.974139    297.037897  7  7  4 102       
PG20 -16129.887607  -5783.734472 -20209.695698    441.860582  8  6  8 101       
PG21  15323.587371  -2134.480474  22123.437195    154.318710  3  5  5 102       
PG22  17745.368459  18819.528630   6844.506017    455.090728  7  6  6  78       
PG23 -11940.588566  18573.441977  14658.538224     13.661727  5  8  5 102       
PG24 -14594.495362   7709.644299  20379.867003   -132.526938  7  7  9  61       
PG25 -18685.649595  17027.765702  -7994.785670    431.813126  4  5  2  98       
PG26  11309.087429  11444.076172 -21277.061676    241.945534  8  4  5 111       
PG27  23349.926915  13039.789684   1320.555581     69.637777  3  3  5  77       
PG28   5711.496391  24768.093458  -7743.207238     55.491335  7 10  7  91       
PG29 -10954.589033  10349.677439 -21926.662198   -593.308661  4  5  5 111       
PG30   -957.503617 -26293.060590   2453.317930   -524.672568  9 12  8 108       
PG31   8808.034073  20819.238541 -13759.179644   -212.841819  4  7  4 101       
PG32  10983.213048  19007.300094  15267.164442   -438.119369  3  3  5  95       
EOF
